[{"OBJECT_NAME":"STARLINK-31091","OBJECT_ID":"2023-203M","EPOCH":"2026-03-09T01:35:15.517248","MEAN_MOTION":15.27574347,"ECCENTRICITY":6.794e-5,"INCLINATION":43.0022,"RA_OF_ASC_NODE":74.2534,"ARG_OF_PERICENTER":241.6419,"MEAN_ANOMALY":118.4364,"EPHEMERIS_TYPE":0,"CLASSIFICATION_TYPE":"U","NORAD_CAT_ID":58629,"ELEMENT_SET_NO":999,"REV_AT_EPOCH":12342,"BSTAR":-1.5186276e-5,"MEAN_MOTION_DOT":-6.8e-6,"MEAN_MOTION_DDOT":0},{"OBJECT_NAME":"TEVEL2-6","OBJECT_ID":"2025-052F","EPOCH":"2026-03-09T15:35:24.554400","MEAN_MOTION":15.30760889,"ECCENTRICITY":0.0004769,"INCLINATION":97.4016,"RA_OF_ASC_NODE":325.0381,"ARG_OF_PERICENTER":95.6604,"MEAN_ANOMALY":264.5181,"EPHEMERIS_TYPE":0,"CLASSIFICATION_TYPE":"U","NORAD_CAT_ID":63215,"ELEMENT_SET_NO":999,"REV_AT_EPOCH":5486,"BSTAR":0.00070909,"MEAN_MOTION_DOT":0.00021046,"MEAN_MOTION_DDOT":0}]
